OBJECT_NAME,OBJECT_ID,EPOCH,MEAN_MOTION,ECCENTRICITY,INCLINATION,RA_OF_ASC_NODE,ARG_OF_PERICENTER,MEAN_ANOMALY,EPHEMERIS_TYPE,CLASSIFICATION_TYPE,NORAD_CAT_ID,ELEMENT_SET_NO,REV_AT_EPOCH,BSTAR,MEAN_MOTION_DOT,MEAN_MOTION_DDOT
SAR-LUPE 2,2007-030A,2026-07-01T14:28:37.629120,15.52231823,.00028273,98.1064,288.8468,203.9565,156.1555,0,U,31797,999,5917,.73172914E-3,.4447E-3,0
SAPPHIRE,2013-009C,2026-07-01T14:13:41.229120,14.35244433,.00107273,98.4266,1.7068,200.3278,159.7483,0,U,39088,999,69864,.45522085E-4,.87E-6,0
PRAETORIAN SDA_602,2025-203A,2026-07-01T11:33:15.311808,13.83886777,.00065897,81.3031,357.5303,150.0253,210.1282,0,U,65565,999,4067,.66453992E-4,.86E-6,0
PRAETORIAN SDA_603,2025-203B,2026-07-01T12:14:59.159616,13.83907147,.00101051,81.3039,357.4263,149.3167,210.8582,0,U,65566,999,4068,.13842314E-3,.166E-5,0
PRAETORIAN SDA_604,2025-203C,2026-07-01T11:11:58.673184,13.83049050,.00060467,81.3054,357.9004,153.6069,206.5396,0,U,65567,999,4065,.46698217E-4,.63E-6,0
PRAETORIAN SDA_605,2025-203D,2026-07-01T12:00:28.022112,13.83435051,.00088364,81.3020,357.5184,145.4062,214.7670,0,U,65568,999,4067,.6801513E-5,.19E-6,0
PRAETORIAN SDA_606,2025-203E,2026-07-01T11:38:53.146176,13.83199079,.00067014,81.3056,357.7649,148.3933,211.7626,0,U,65569,999,4066,.3457374E-4,.5E-6,0
PRAETORIAN SDA_607,2025-203F,2026-07-01T11:34:15.991392,13.84286110,.00094365,81.3040,357.4040,149.5149,210.6559,0,U,65570,999,4068,.12442948E-3,.151E-5,0
PRAETORIAN SDA_608,2025-203G,2026-07-01T11:08:40.007616,13.83818371,.00065607,81.3008,357.5882,152.8626,207.2875,0,U,65571,999,4066,.67291521E-4,.86E-6,0
PRAETORIAN SDA_609,2025-203H,2026-07-01T11:09:54.728064,13.84210757,.0007435,81.3051,357.5680,147.7108,212.4505,0,U,65572,999,4067,.11481343E-3,.14E-5,0
PRAETORIAN SDA_610,2025-203J,2026-07-01T12:24:20.071872,13.83769047,.00073261,81.3009,357.4988,152.2875,207.8673,0,U,65573,999,4067,.50384E-4,.68E-6,0
PRAETORIAN SDA_611,2025-203K,2026-07-01T10:48:10.126944,13.83310449,.00060738,81.3012,357.7361,156.3792,203.7644,0,U,65574,999,4065,.21183605E-3,.244E-5,0
PRAETORIAN SDA_612,2025-203L,2026-07-01T11:51:36.345024,13.85041514,.00098601,81.3032,357.2468,148.6958,211.4788,0,U,65575,999,4069,.20758345E-3,.247E-5,0
PRAETORIAN SDA_613,2025-203M,2026-07-01T11:05:57.339744,13.82766469,.00063171,81.3001,357.7330,146.9038,213.2514,0,U,65576,999,4065,.43899581E-4,.6E-6,0
PRAETORIAN SDA_614,2025-203N,2026-07-01T11:39:54.706176,13.84778269,.00077825,81.3015,357.3356,146.1622,214.0033,0,U,65577,999,4069,.17641442E-4,.32E-6,0
PRAETORIAN SDA_615,2025-203P,2026-07-01T11:11:42.073152,13.84438182,.00096202,81.3026,357.3268,147.5751,212.5999,0,U,65578,999,4068,.12135783E-3,.148E-5,0
PRAETORIAN SDA_616,2025-203Q,2026-07-01T12:31:48.513792,13.83269337,.00059953,81.3066,357.8248,154.2138,205.9318,0,U,65579,999,4066,.10973887E-3,.132E-5,0
PRAETORIAN SDA_617,2025-203R,2026-07-01T11:20:30.749568,13.83151162,.0008029,81.3038,357.7001,146.5839,213.5825,0,U,65580,999,4066,.44284006E-4,.6E-6,0
PRAETORIAN SDA_618,2025-203S,2026-07-01T12:05:43.560096,13.84225502,.00103833,81.3021,357.2197,150.9172,209.2565,0,U,65581,999,4069,.20659254E-3,.242E-5,0
PRAETORIAN SDA_619,2025-203T,2026-07-01T11:23:54.563712,13.83807319,.00087897,81.3045,357.5628,147.8195,212.3500,0,U,65582,999,4130,.13580813E-3,.162E-5,0
PRAETORIAN SDA_620,2025-203U,2026-07-01T12:06:59.848704,13.83620354,.00082926,81.3033,357.5580,143.6373,216.5348,0,U,65583,999,4067,.15724155E-3,.185E-5,0
PRAETORIAN SDA_621,2025-203V,2026-07-01T11:26:31.482528,13.83802642,.00081002,81.3021,357.4964,141.7214,218.4519,0,U,65584,999,4067,.39866674E-4,.56E-6,0
PRAETORIAN SDA_601,2025-203W,2026-07-01T10:53:39.059520,13.83168990,.00060346,81.3042,357.8299,157.4053,202.7370,0,U,65585,999,4065,.20508702E-3,.236E-5,0
VICTUS HAZE PUMA,2026-142A,2026-07-01T15:00:46.949760,15.20798415,.00215211,97.4464,80.0858,312.1981,47.7427,0,U,69646,999,186,.19456864E-3,.4244E-4,0
