SAR-LUPE 2              
1 31797U 07030A   26182.60321330  .00044470  00000+0  73173-3 0  9996
2 31797  98.1064 288.8468 0002827 203.9565 156.1555 15.52231823 59172
SAPPHIRE                
1 39088U 13009C   26182.59283830  .00000087  00000+0  45522-4 0  9994
2 39088  98.4266   1.7068 0010727 200.3278 159.7483 14.35244433698649
PRAETORIAN SDA_602      
1 65565U 25203A   26182.48142722  .00000086  00000+0  66454-4 0  9990
2 65565  81.3031 357.5303 0006589 150.0253 210.1282 13.83886777 40676
PRAETORIAN SDA_603      
1 65566U 25203B   26182.51040694  .00000166  00000+0  13842-3 0  9991
2 65566  81.3039 357.4263 0010105 149.3167 210.8582 13.83907147 40689
PRAETORIAN SDA_604      
1 65567U 25203C   26182.46665131  .00000063  00000+0  46698-4 0  9997
2 65567  81.3054 357.9004 0006046 153.6069 206.5396 13.83049050 40655
PRAETORIAN SDA_605      
1 65568U 25203D   26182.50032433  .00000019  00000+0  68015-5 0  9995
2 65568  81.3020 357.5184 0008836 145.4062 214.7670 13.83435051 40673
PRAETORIAN SDA_606      
1 65569U 25203E   26182.48533734  .00000050  00000+0  34574-4 0  9990
2 65569  81.3056 357.7649 0006701 148.3933 211.7626 13.83199079 40663
PRAETORIAN SDA_607      
1 65570U 25203F   26182.48212953  .00000151  00000+0  12443-3 0  9991
2 65570  81.3040 357.4040 0009436 149.5149 210.6559 13.84286110 40689
PRAETORIAN SDA_608      
1 65571U 25203G   26182.46435194  .00000086  00000+0  67292-4 0  9994
2 65571  81.3008 357.5882 0006560 152.8626 207.2875 13.83818371 40661
PRAETORIAN SDA_609      
1 65572U 25203H   26182.46521676  .00000140  00000+0  11481-3 0  9995
2 65572  81.3051 357.5680 0007435 147.7108 212.4505 13.84210757 40670
PRAETORIAN SDA_610      
1 65573U 25203J   26182.51689898  .00000068  00000+0  50384-4 0  9998
2 65573  81.3009 357.4988 0007326 152.2875 207.8673 13.83769047 40679
PRAETORIAN SDA_611      
1 65574U 25203K   26182.45011721  .00000244  00000+0  21184-3 0  9997
2 65574  81.3012 357.7361 0006073 156.3792 203.7644 13.83310449 40652
PRAETORIAN SDA_612      
1 65575U 25203L   26182.49417066  .00000247  00000+0  20758-3 0  9993
2 65575  81.3032 357.2468 0009860 148.6958 211.4788 13.85041514 40698
PRAETORIAN SDA_613      
1 65576U 25203M   26182.46246921  .00000060  00000+0  43900-4 0  9999
2 65576  81.3001 357.7330 0006317 146.9038 213.2514 13.82766469 40655
PRAETORIAN SDA_614      
1 65577U 25203N   26182.48604984  .00000032  00000+0  17641-4 0  9991
2 65577  81.3015 357.3356 0007782 146.1622 214.0033 13.84778269 40695
PRAETORIAN SDA_615      
1 65578U 25203P   26182.46645918  .00000148  00000+0  12136-3 0  9993
2 65578  81.3026 357.3268 0009620 147.5751 212.5999 13.84438182 40681
PRAETORIAN SDA_616      
1 65579U 25203Q   26182.52208928  .00000132  00000+0  10974-3 0  9998
2 65579  81.3066 357.8248 0005995 154.2138 205.9318 13.83269337 40666
PRAETORIAN SDA_617      
1 65580U 25203R   26182.47257812  .00000060  00000+0  44284-4 0  9992
2 65580  81.3038 357.7001 0008029 146.5839 213.5825 13.83151162 40660
PRAETORIAN SDA_618      
1 65581U 25203S   26182.50397639  .00000242  00000+0  20659-3 0  9990
2 65581  81.3021 357.2197 0010383 150.9172 209.2565 13.84225502 40696
PRAETORIAN SDA_619      
1 65582U 25203T   26182.47493708  .00000162  00000+0  13581-3 0  9998
2 65582  81.3045 357.5628 0008789 147.8195 212.3500 13.83807319 41306
PRAETORIAN SDA_620      
1 65583U 25203U   26182.50485936  .00000185  00000+0  15724-3 0  9993
2 65583  81.3033 357.5580 0008292 143.6373 216.5348 13.83620354 40679
PRAETORIAN SDA_621      
1 65584U 25203V   26182.47675327  .00000056  00000+0  39867-4 0  9997
2 65584  81.3021 357.4964 0008100 141.7214 218.4519 13.83802642 40676
PRAETORIAN SDA_601      
1 65585U 25203W   26182.45392430  .00000236  00000+0  20509-3 0  9999
2 65585  81.3042 357.8299 0006034 157.4053 202.7370 13.83168990 40654
VICTUS HAZE PUMA        
1 69646U 26142A   26182.62554340  .00004244  00000+0  19457-3 0  9996
2 69646  97.4464  80.0858 0021521 312.1981  47.7427 15.20798415  1860
